OBJECT_NAME,OBJECT_ID,EPOCH,MEAN_MOTION,ECCENTRICITY,INCLINATION,RA_OF_ASC_NODE,ARG_OF_PERICENTER,MEAN_ANOMALY,EPHEMERIS_TYPE,CLASSIFICATION_TYPE,NORAD_CAT_ID,ELEMENT_SET_NO,REV_AT_EPOCH,BSTAR,MEAN_MOTION_DOT,MEAN_MOTION_DDOT
STARLINK-32618,2024-216P,2026-07-09T07:21:43.338240,15.27593356,.00019416,42.9978,289.6389,292.1710,67.8936,0,U,62045,999,9247,.40335148E-3,.10858E-3,0
STARLINK-32598,2024-216Q,2026-07-09T07:47:24.490464,15.27611196,.00010565,42.9961,288.9109,190.4286,169.6543,0,U,62046,999,9248,.59541341E-3,.16174E-3,0
STARLINK-32630,2024-216R,2026-07-09T07:40:40.839168,15.27604058,.00016399,43.0008,296.6655,274.4571,85.6093,0,U,62047,999,9239,.68676468E-3,.18698E-3,0
STARLINK-32599,2024-216S,2026-07-09T07:46:12.434592,15.27624870,.00020726,43.0006,296.6922,161.2736,198.8193,0,U,62048,999,9239,.44394671E-3,.11991E-3,0
STARLINK-32473,2024-216T,2026-07-09T07:12:27.648864,15.27560243,.00008036,42.9944,289.5939,309.2914,50.7867,0,U,62049,999,9131,-.22863994E-3,-.6544E-4,0
STARLINK-32492,2024-216U,2026-07-09T07:09:12.399552,15.27597085,.00036699,43.0019,296.5030,289.6573,70.3883,0,U,62050,999,9239,.43428734E-3,.11715E-3,0
STARLINK-32496,2024-216V,2026-07-09T08:01:00.808032,15.27633728,.00019487,42.9946,296.7597,177.0102,183.0762,0,U,62051,999,9239,.15767464E-2,.43455E-3,0
STARLINK-32495,2024-216W,2026-07-09T06:43:19.641216,15.27621657,.00016899,43.0010,296.3607,176.4457,183.6407,0,U,62052,999,9239,.70571596E-3,.19233E-3,0
STARLINK-32494,2024-216X,2026-07-09T07:20:20.972256,15.27576584,.00015472,42.9993,296.5618,275.7213,84.3462,0,U,62053,999,9239,.64479965E-3,.17522E-3,0
STARLINK-32408,2024-216Y,2026-07-09T07:06:55.009728,15.27643033,.0001454,42.9923,289.5627,168.7286,191.3599,0,U,62054,999,9248,.19249774E-2,.53195E-3,0
STARLINK-32571,2024-216Z,2026-07-09T07:41:51.497088,15.27597985,.00011417,42.9995,288.8840,243.4249,116.6486,0,U,62055,999,9258,.42629965E-3,.11493E-3,0
STARLINK-11465 [DTC],2024-217A,2026-07-08T12:24:16.420608,15.69751917,.00011434,53.1575,195.4155,88.4265,271.6884,0,U,62057,999,9415,.99004793E-3,.121334E-2,0
STARLINK-11426 [DTC],2024-217B,2026-07-08T04:38:47.503104,15.69771841,.0001274,53.1569,196.9527,98.7080,261.4082,0,U,62058,999,9404,.84532111E-3,.103371E-2,0
STARLINK-11454 [DTC],2024-217C,2026-07-09T07:26:51.230688,15.69734736,.00004813,53.1583,191.8423,304.5865,55.5107,0,U,62059,999,9427,.98214471E-3,.120259E-2,0
STARLINK-11473 [DTC],2024-217D,2026-07-09T00:02:33.696096,15.69781418,.00015321,53.1566,193.4771,105.0376,255.0812,0,U,62060,999,9422,.14757181E-2,.182725E-2,0
STARLINK-11429 [DTC],2024-217E,2026-07-08T23:41:21.353280,15.69847520,.00011498,53.1571,193.3789,82.1075,278.0073,0,U,62061,999,9422,.14841668E-2,.184315E-2,0
STARLINK-11470 [DTC],2024-217F,2026-07-08T23:34:18.598944,15.69792400,.00030161,53.1542,193.3461,80.0369,280.0989,0,U,62062,999,9416,.85548344E-3,.104742E-2,0
STARLINK-11427 [DTC],2024-217G,2026-07-08T17:48:46.143936,15.69748037,.00009629,53.1581,194.6995,89.0436,271.0693,0,U,62063,999,9418,.75775326E-3,.92385E-3,0
STARLINK-11456 [DTC],2024-217H,2026-07-09T06:51:32.339808,15.69723881,.00010539,53.1552,191.6781,17.8389,342.2665,0,U,62064,999,9427,.12134679E-2,.149179E-2,0
STARLINK-11474 [DTC],2024-217J,2026-07-09T00:23:33.021024,15.69899398,.00006392,53.1571,192.8377,84.4307,275.6784,0,U,62065,999,9423,.88978172E-3,.1095E-2,0
STARLINK-11463 [DTC],2024-217K,2026-07-09T00:58:55.536384,15.69792218,.00022538,53.1548,193.0037,82.4135,277.7139,0,U,62066,999,9423,.91788123E-3,.112521E-2,0
STARLINK-11472 [DTC],2024-217L,2026-07-09T07:55:06.805632,15.69739326,.00014318,53.1579,191.9698,344.9275,15.1700,0,U,62067,999,9420,.1450046E-2,.179144E-2,0
STARLINK-11467 [DTC],2024-217M,2026-07-09T00:51:51.574176,15.69793922,.00013143,53.1564,192.9660,81.5727,278.5440,0,U,62068,999,9423,.13718959E-2,.169646E-2,0
STARLINK-11460 [DTC],2024-217N,2026-07-09T00:09:37.467360,15.69839670,.00008326,53.1562,193.5059,331.8540,28.2432,0,U,62069,999,9416,.11975152E-2,.147897E-2,0
STARLINK-32604,2024-217P,2026-07-08T17:42:01.838592,15.34419519,.00006542,53.1589,350.2746,92.5970,267.5107,0,U,62070,999,9197,.35408383E-3,.11613E-3,0
STARLINK-32553,2024-217Q,2026-07-08T17:51:07.513344,15.34402478,.00009779,53.1596,350.3173,91.7250,268.3865,0,U,62071,999,9202,.38134087E-3,.12531E-3,0
STARLINK-32603,2024-217R,2026-07-08T18:09:18.982080,15.34426950,.00004888,53.1593,350.3912,119.5139,240.5912,0,U,62072,999,9202,.5660296E-3,.18813E-3,0
STARLINK-32444,2024-217S,2026-07-08T17:29:55.282848,15.34416319,.00007697,53.1599,350.2413,91.6012,268.5079,0,U,62073,999,9197,.24208305E-3,.7816E-4,0
STARLINK-32619,2024-217T,2026-07-08T17:32:58.144992,15.34417628,.00011098,53.1600,350.2373,121.4294,238.6817,0,U,62074,999,9197,.10662558E-2,.35841E-3,0
