STARLINK-32618          
1 62045U 24216P   26190.30675160  .00010858  00000+0  40335-3 0  9997
2 62045  42.9978 289.6389 0001941 292.1710  67.8936 15.27593356 92477
STARLINK-32598          
1 62046U 24216Q   26190.32458901  .00016174  00000+0  59541-3 0  9998
2 62046  42.9961 288.9109 0001056 190.4286 169.6543 15.27611196 92486
STARLINK-32630          
1 62047U 24216R   26190.31991712  .00018698  00000+0  68676-3 0  9992
2 62047  43.0008 296.6655 0001639 274.4571  85.6093 15.27604058 92396
STARLINK-32599          
1 62048U 24216S   26190.32375503  .00011991  00000+0  44395-3 0  9999
2 62048  43.0006 296.6922 0002072 161.2736 198.8193 15.27624870 92392
STARLINK-32473          
1 62049U 24216T   26190.30032001 -.00006544  00000+0 -22864-3 0  9998
2 62049  42.9944 289.5939 0000803 309.2914  50.7867 15.27560243 91311
STARLINK-32492          
1 62050U 24216U   26190.29806018  .00011715  00000+0  43429-3 0  9999
2 62050  43.0019 296.5030 0003669 289.6573  70.3883 15.27597085 92392
STARLINK-32496          
1 62051U 24216V   26190.33403713  .00043455  00000+0  15767-2 0  9999
2 62051  42.9946 296.7597 0001948 177.0102 183.0762 15.27633728 92399
STARLINK-32495          
1 62052U 24216W   26190.28008844  .00019233  00000+0  70572-3 0  9993
2 62052  43.0010 296.3607 0001689 176.4457 183.6407 15.27621657 92390
STARLINK-32494          
1 62053U 24216X   26190.30579829  .00017522  00000+0  64480-3 0  9993
2 62053  42.9993 296.5618 0001547 275.7213  84.3462 15.27576584 92395
STARLINK-32408          
1 62054U 24216Y   26190.29647002  .00053195  00000+0  19250-2 0  9991
2 62054  42.9923 289.5627 0001454 168.7286 191.3599 15.27643033 92483
STARLINK-32571          
1 62055U 24216Z   26190.32073492  .00011493  00000+0  42630-3 0  9996
2 62055  42.9995 288.8840 0001141 243.4249 116.6486 15.27597985 92585
STARLINK-11465 [DTC]    
1 62057U 24217A   26189.51685672  .00121334  00000+0  99005-3 0  9991
2 62057  53.1575 195.4155 0001143  88.4265 271.6884 15.69751917 94156
STARLINK-11426 [DTC]    
1 62058U 24217B   26189.19360536  .00103371  00000+0  84532-3 0  9995
2 62058  53.1569 196.9527 0001274  98.7080 261.4082 15.69771841 94046
STARLINK-11454 [DTC]    
1 62059U 24217C   26190.31031517  .00120259  00000+0  98214-3 0  9992
2 62059  53.1583 191.8423 0000481 304.5865  55.5107 15.69734736 94277
STARLINK-11473 [DTC]    
1 62060U 24217D   26190.00177889  .00182725  00000+0  14757-2 0  9998
2 62060  53.1566 193.4771 0001532 105.0376 255.0812 15.69781418 94227
STARLINK-11429 [DTC]    
1 62061U 24217E   26189.98705270  .00184315  00000+0  14842-2 0  9997
2 62061  53.1571 193.3789 0001149  82.1075 278.0073 15.69847520 94228
STARLINK-11470 [DTC]    
1 62062U 24217F   26189.98215971  .00104742  00000+0  85548-3 0  9990
2 62062  53.1542 193.3461 0003016  80.0369 280.0989 15.69792400 94160
STARLINK-11427 [DTC]    
1 62063U 24217G   26189.74220074  .00092385  00000+0  75775-3 0  9995
2 62063  53.1581 194.6995 0000962  89.0436 271.0693 15.69748037 94182
STARLINK-11456 [DTC]    
1 62064U 24217H   26190.28579097  .00149179  00000+0  12135-2 0  9993
2 62064  53.1552 191.6781 0001053  17.8389 342.2665 15.69723881 94279
STARLINK-11474 [DTC]    
1 62065U 24217J   26190.01635441  .00109500  00000+0  88978-3 0  9994
2 62065  53.1571 192.8377 0000639  84.4307 275.6784 15.69899398 94238
STARLINK-11463 [DTC]    
1 62066U 24217K   26190.04092056  .00112521  00000+0  91788-3 0  9997
2 62066  53.1548 193.0037 0002253  82.4135 277.7139 15.69792218 94230
STARLINK-11472 [DTC]    
1 62067U 24217L   26190.32993988  .00179144  00000+0  14500-2 0  9993
2 62067  53.1579 191.9698 0001431 344.9275  15.1700 15.69739326 94209
STARLINK-11467 [DTC]    
1 62068U 24217M   26190.03601359  .00169646  00000+0  13719-2 0  9997
2 62068  53.1564 192.9660 0001314  81.5727 278.5440 15.69793922 94231
STARLINK-11460 [DTC]    
1 62069U 24217N   26190.00668365  .00147897  00000+0  11975-2 0  9991
2 62069  53.1562 193.5059 0000832 331.8540  28.2432 15.69839670 94161
STARLINK-32604          
1 62070U 24217P   26189.73752128  .00011613  00000+0  35408-3 0  9996
2 62070  53.1589 350.2746 0000654  92.5970 267.5107 15.34419519 91978
STARLINK-32553          
1 62071U 24217Q   26189.74383696  .00012531  00000+0  38134-3 0  9997
2 62071  53.1596 350.3173 0000977  91.7250 268.3865 15.34402478 92025
STARLINK-32603          
1 62072U 24217R   26189.75646970  .00018813  00000+0  56603-3 0  9996
2 62072  53.1593 350.3912 0000488 119.5139 240.5912 15.34426950 92022
STARLINK-32444          
1 62073U 24217S   26189.72911207  .00007816  00000+0  24208-3 0  9999
2 62073  53.1599 350.2413 0000769  91.6012 268.5079 15.34416319 91971
STARLINK-32619          
1 62074U 24217T   26189.73122853  .00035841  00000+0  10663-2 0  9990
2 62074  53.1600 350.2373 0001109 121.4294 238.6817 15.34417628 91975
